# From MPEC 2022-S20
C/1995 O1 (Hale-Bopp),e,89.4694,282.3547,130.4188,176.9397,0.0004188,0.99496555,0.0000,03/29.4648/1997,2000,g -2.0,4.0
# From NK 1615
P/1996 R2 (Lagerkvist),e,2.6009,40.0092,333.4396,3.774261,0.1344176,0.31460432,217.3893,07/20.0/2023,2000,g 11.5,4.0
# From MPC 75703
P/1998 VS24 (LINEAR),e,5.0263,159.0311,244.6939,4.524013,0.1024279,0.24348170,205.3863,07/20.0/2023,2000,g 13.0,2.0
# From NK 731
P/1999 RO28 (LONEOS),e,7.5639,137.8500,231.3351,3.426271,0.1554073,0.67250929,230.5486,07/20.0/2023,2000,g 20.0,2.0
# From MPC 75704
P/1999 XN120 (Catalina),e,5.0297,285.2950,161.6507,4.179108,0.1153662,0.21061126,257.7118,07/20.0/2023,2000,g 13.5,2.0
# From NK 744
P/2000 R2 (LINEAR),e,11.6839,160.2839,176.6018,3.468073,0.1526060,0.53116570,227.8541,07/20.0/2023,2000,g 18.0,4.0
# From MPC 43019
P/2001 H5 (NEAT),e,8.3668,328.6825,224.6695,6.095598,0.0654907,0.59824482,185.9481,07/20.0/2023,2000,g 12.0,4.0
# From MPC 75704
P/2001 Q6 (NEAT),e,56.9116,22.1844,42.9352,7.966206,0.0438356,0.82355418,350.2107,07/20.0/2023,2000,g 13.5,4.0
# From MPC 47727
P/2002 EJ57 (LINEAR),e,4.9800,330.2853,167.2651,6.460358,0.0600232,0.59271517,111.5505,07/20.0/2023,2000,g 12.5,4.0
# From MPC109588
P/2002 T6 (NEAT-LINEAR),e,10.8576,206.0426,219.3476,7.769785,0.0455083,0.56426188,343.4116,07/20.0/2023,2000,g 10.5,4.0
# From MPC 75007
C/2002 VQ94 (LINEAR),e,70.7104,35.1620,99.9058,184.5573,0.0003931,0.96320936,2.5068,07/20.0/2023,2000,g  9.5,2.0
# From MPC 50354
P/2003 F2 (NEAT),e,11.6204,358.9623,192.2858,6.501147,0.0594592,0.54132038,80.0293,07/20.0/2023,2000,g 16.5,2.0
# From MPC 50139
P/2003 QX29 (NEAT),e,11.3963,264.4952,37.7066,8.010582,0.0434718,0.47218483,327.4427,07/20.0/2023,2000,g  8.5,4.0
# From MPC105235
P/2003 T12 (SOHO),e,11.0216,174.5789,219.7697,2.584981,0.2371472,0.77025437,277.0584,07/20.0/2023,2000,g 17.0,4.0
# From MPC 54558
P/2004 DO29 (Spacewatch-LINEAR),e,14.5287,147.3798,40.4435,7.302189,0.0499487,0.44164052,344.0518,07/20.0/2023,2000,g 13.5,2.0
# From MPEC 2022-YN2
P/2004 FY140 (LINEAR),e,2.1619,327.2720,254.1726,4.969651,0.0889642,0.19171290,243.1004,07/20.0/2023,2000,g 12.5,2.0
# From MPC 53304
P/2004 R3 (LINEAR-NEAT),e,12.7853,305.2851,37.5473,4.758184,0.0949603,0.25496320,63.5005,07/20.0/2023,2000,g 14.5,4.0
# From MPC 55521
P/2004 V3 (Siding Spring),e,50.4445,356.1258,322.5353,7.126292,0.0518094,0.44572333,353.4529,07/20.0/2023,2000,g 11.5,4.0
# From MPC 75705
P/2004 V5 (LINEAR-Hill),e,19.3501,47.7682,87.4796,8.000513,0.0435539,0.44584114,295.4025,07/20.0/2023,2000,g  8.0,4.0
# From MPC 54164
P/2005 E1 (Tubbiolo),e,4.2621,335.5786,193.8360,7.056095,0.0525845,0.37603674,356.3229,07/20.0/2023,2000,g 10.0,4.0
# From MPC 79019
P/2005 J1 (McNaught),e,31.7325,268.8289,338.9006,3.572718,0.1459507,0.56895632,254.4901,07/20.0/2023,2000,g 16.5,4.0
# From MPC 74246
P/2005 L1 (McNaught),e,7.6798,137.5994,151.3826,4.009826,0.1227484,0.21678197,75.7343,07/20.0/2023,2000,g  9.5,4.0
# From MPC 75706
P/2005 S2 (Skiff),e,3.1358,161.2174,229.6432,7.999139,0.0435652,0.19884106,272.4370,07/20.0/2023,2000,g  7.5,4.0
# From MPC 75706
P/2005 SB216 (LONEOS),e,24.1192,1.1173,83.2074,7.151103,0.0515400,0.46511717,313.1061,07/20.0/2023,2000,g 12.0,2.0
# From MPC 73461
P/2005 T3 (Read),e,6.2250,27.6359,6.7430,7.588489,0.0471488,0.17556355,307.1162,07/20.0/2023,2000,g  9.0,4.0
# From MPC 73461
P/2005 T4 (SWAN),e,160.2774,25.9444,41.8777,9.356575,0.0344373,0.93000058,223.4308,07/20.0/2023,2000,g 15.0,4.0
# From MPC 75706
P/2005 T5 (Broughton),e,21.3835,57.0049,304.7500,7.274719,0.0502319,0.55255541,325.0646,07/20.0/2023,2000,g 11.0,4.0
# From MPC 75707
P/2006 HR30 (Siding Spring),e,31.8868,309.7794,117.4484,7.806275,0.0451896,0.84342356,273.7835,07/20.0/2023,2000,g 11.0,4.0
# From MPC 75707
P/2007 C2 (Catalina),e,8.6034,275.2471,180.1874,7.004080,0.0531713,0.47263831,308.0862,07/20.0/2023,2000,g 10.0,4.0
# From MPC 84315
C/2007 D1 (LINEAR),e,41.5027,171.2048,339.7255,1151,0.0000253,0.99237989,0.0000,06/08.0608/2007,2000,g  3.5,4.0
# From MPC 82314
P/2007 K2 (Gibbs),e,7.6271,188.6329,347.3001,7.284645,0.0501293,0.68368322,296.9574,07/20.0/2023,2000,g 14.0,4.0
# From MPC 60925
P/2007 Q2 (Gilmore),e,10.2020,172.1595,162.8859,5.659497,0.0732044,0.66976294,70.6586,07/20.0/2023,2000,g 16.0,4.0
# From MPC 73462
P/2007 S1 (Zhao),e,5.9612,141.3396,245.1847,3.816931,0.1321699,0.33855071,37.8399,07/20.0/2023,2000,g 13.0,4.0
# From MPC 61994
P/2007 T2 (Kowalski),e,9.7511,3.3726,359.6834,3.044635,0.1855245,0.78567197,337.6228,07/20.0/2023,2000,g 18.5,4.0
# From MPC 64114
P/2008 O3 (Boattini),e,32.3488,47.5598,341.2041,8.212768,0.0418764,0.69654584,231.2166,07/20.0/2023,2000,g 13.0,4.0
# From MPC 75710
P/2008 Y3 (McNaught),e,38.7829,262.8854,237.9944,8.046297,0.0431827,0.44640727,230.2158,07/20.0/2023,2000,g  8.5,4.0
# From MPC 75710
P/2009 B1 (Boattini),e,22.2465,297.0694,128.9378,6.735442,0.0563839,0.63590228,299.3089,07/20.0/2023,2000,g 13.0,4.0
# From MPC 66466
C/2009 G1 (STEREO),e,108.3321,120.6515,175.5313,471.4682,0.0000963,0.99758581,0.0000,04/19.3205/2009,2000,g  9.0,4.0
# From MPC 75710
P/2009 O3 (Hill),e,16.2868,183.6865,154.5022,7.767018,0.0455326,0.68742854,235.0824,07/20.0/2023,2000,g 12.5,4.0
# From MPC 68902
P/2009 Q5 (McNaught),e,40.9724,160.2529,209.1615,7.427219,0.0486928,0.60994736,246.0083,07/20.0/2023,2000,g 10.0,4.0
# From MPC112389
P/2009 T2 (La Sagra),e,27.6146,215.9186,216.3314,7.715710,0.0459875,0.76693588,227.4429,07/20.0/2023,2000,g 14.0,4.0
# From MPC105235
P/2009 WX51 (Catalina),e,9.5962,31.5427,118.2723,3.082764,0.1820932,0.73927811,177.8103,07/20.0/2023,2000,g 19.0,2.0
# From MPC 74247
P/2009 Y2 (Kowalski),e,29.9744,262.0550,172.1539,6.547801,0.0588249,0.63711365,287.5928,07/20.0/2023,2000,g 13.0,4.0
# From MPC 75711
P/2010 A3 (Hill),e,14.8147,63.5963,42.2992,6.090698,0.0655697,0.73392448,320.6184,07/20.0/2023,2000,g 14.0,4.0
# From MPC 75008
P/2010 C1 (Scotti),e,9.1196,141.8227,3.1683,7.110613,0.0519809,0.26158481,261.2213,07/20.0/2023,2000,g  9.5,4.0
# From MPC 75008
P/2010 D2 (WISE),e,57.1094,319.8794,119.9066,6.722738,0.0565438,0.45158016,277.9989,07/20.0/2023,2000,g 16.0,4.0
# From MPC 75009
P/2010 E2 (Jarnac),e,15.3895,177.8228,8.2612,8.639796,0.0388105,0.71955985,189.0036,07/20.0/2023,2000,g 14.0,4.0
# From MPC 72851
P/2010 H2 (Vales),e,14.2807,64.1875,128.0475,3.831511,0.1314162,0.19703276,281.3123,07/20.0/2023,2000,g  6.0,4.0
# From MPC 70361
P/2010 H3 (SOHO),e,23.1176,77.1446,26.0953,3.036087,0.1863086,0.98544332,0.0000,02/07.8526/2021,2000,g 20.0,2.0
# From MPC 73463
P/2010 H4 (Scotti),e,2.3178,44.7274,179.1555,6.605118,0.0580608,0.26602379,278.6846,07/20.0/2023,2000,g 10.5,4.0
# From MPC 74637
P/2010 H5 (Scotti),e,14.0568,24.7920,174.5029,7.174059,0.0512928,0.15273115,250.3915,07/20.0/2023,2000,g 13.0,2.0
# From MPC 98558
P/2010 J3 (McMillan),e,13.2512,106.4961,157.5401,8.983344,0.0366056,0.72491919,172.6283,07/20.0/2023,2000,g 11.0,4.0
# From MPC 84315
P/2010 JC81 (WISE),e,38.8340,30.8730,12.4446,8.104432,0.0427189,0.77817216,190.7661,07/20.0/2023,2000,g  9.0,4.0
# From MPC 74248
P/2010 T2 (PANSTARRS),e,7.8993,58.3926,352.0653,5.609453,0.0741862,0.32693584,342.5843,07/20.0/2023,2000,g 11.5,4.0
# From MPEC 2023-B57
P/2010 TO20 (LINEAR-Grauer),e,2.4788,43.2756,267.7343,5.832626,0.0699694,0.05562440,16.1976,07/20.0/2023,2000,g  9.0,4.0
# From MPC 82316
P/2010 U1 (Boattini),e,8.2238,280.6715,86.4172,6.497245,0.0595128,0.24917071,291.8455,07/20.0/2023,2000,g  9.5,4.0
# From MPEC 2023-J95
C/2010 U3 (Boattini),e,55.5645,42.9885,88.0377,3269,0.0000053,0.99741854,0.0000,02/25.6544/2019,2000,g  1.0,4.0
# From MPC 79021
P/2010 UH55 (Spacewatch),e,8.0374,232.8890,225.1617,6.654037,0.0574217,0.56410553,257.7930,07/20.0/2023,2000,g 11.0,4.0
# From MPC 75009
P/2010 WK (LINEAR),e,11.4018,11.3279,41.0055,5.762172,0.0712565,0.69065317,333.8259,07/20.0/2023,2000,g 14.5,2.0
# From MPC 84021
P/2011 C2 (Gibbs),e,10.8881,12.1196,160.2985,7.412878,0.0488342,0.26946970,207.0659,07/20.0/2023,2000,g  9.0,4.0
# From MPC 79866
P/2011 FR143 (Lemmon),e,15.9751,190.9484,349.8298,6.866750,0.0547743,0.45116343,248.8525,07/20.0/2023,2000,g 14.0,2.0
# From MPC 82317
P/2011 JB15 (Spacewatch-Boattini),e,19.1429,153.6050,110.9676,7.370897,0.0492520,0.31524231,207.2483,07/20.0/2023,2000,g  9.0,4.0
# From MPEC 2023-J95
C/2011 KP36 (Spacewatch),e,18.9863,173.2713,180.9386,39.44559,0.0039784,0.87577912,10.3755,07/20.0/2023,2000,g  4.5,4.0
# From MPC 87913
P/2011 N1 (ASH),e,35.7852,77.5757,330.4323,6.241968,0.0632007,0.54533854,257.3311,07/20.0/2023,2000,g 11.5,4.0
# From MPC 75714
P/2011 NO1 (Elenin),e,15.2455,295.8249,263.7093,5.534922,0.0756897,0.77477985,346.3787,07/20.0/2023,2000,g 15.0,4.0
# From MPEC 2022-ED3
P/2011 P1 (McNaught),e,5.6594,4.2278,349.2119,7.458318,0.0483886,0.32751581,228.9787,07/20.0/2023,2000,g  9.0,4.0
# From MPEC 2022-HC2
P/2011 S1 (Gibbs),e,2.6887,218.8144,192.6257,8.584921,0.0391832,0.20172823,127.6442,07/20.0/2023,2000,g  8.0,4.0
# From MPC 79022
P/2011 UA134 (Spacewatch-PANSTARRS),e,10.4403,40.3923,32.4161,5.610337,0.0741687,0.62998901,317.1410,07/20.0/2023,2000,g 17.5,4.0
# From MPC 77406
P/2011 V1 (Boattini),e,7.3751,46.7725,269.3911,3.858027,0.1300637,0.54970897,227.8753,07/20.0/2023,2000,g 15.5,4.0
# From MPC 82718
P/2011 W1 (PANSTARRS),e,3.7184,161.7851,282.8390,4.668738,0.0977023,0.28835777,51.4639,07/20.0/2023,2000,g 11.5,4.0
# From MPC 79342
P/2011 Y2 (Boattini),e,6.3826,309.3048,131.9967,6.236218,0.0632881,0.71070787,262.8229,07/20.0/2023,2000,g 15.0,4.0
# From MPEC 2022-K19
P/2012 B1 (PANSTARRS),e,7.6103,36.2164,162.2604,6.532819,0.0590273,0.40926353,216.4612,07/20.0/2023,2000,g  9.0,4.0
# From MPC 78590
P/2012 C3 (PANSTARRS),e,9.0920,135.3677,344.9542,9.748681,0.0323806,0.63011148,359.9758,10/06.0/2011,2000,g 13.0,4.0
# From MPC 84931
P/2012 F2 (PANSTARRS),e,14.6971,226.9664,33.2942,6.338824,0.0617577,0.54054956,232.0988,07/20.0/2023,2000,g 12.0,4.0
# From MPEC 2022-ED3
P/2012 G1 (PANSTARRS),e,12.1696,283.2630,266.1114,4.164955,0.1159547,0.32907852,118.6595,07/20.0/2023,2000,g 15.0,4.0
